{
    "links": {
        "self": "http://www.neowsapp.com/rest/v1/neo/54017036?api_key=iIulBulltgU6a56xZRHN4H3l9WmuAYTsLGpBGhQ2"
    },
    "id": "54017036",
    "neo_reference_id": "54017036",
    "name": "(2020 JF2)",
    "designation": "2020 JF2",
    "nasa_jpl_url": "http://ssd.jpl.nasa.gov/sbdb.cgi?sstr=54017036",
    "absolute_magnitude_h": 23.727,
    "estimated_diameter": {
        "kilometers": {
            "estimated_diameter_min": 0.0477699709,
            "estimated_diameter_max": 0.1068169022
        },
        "meters": {
            "estimated_diameter_min": 47.769970887,
            "estimated_diameter_max": 106.8169021866
        },
        "miles": {
            "estimated_diameter_min": 0.0296828746,
            "estimated_diameter_max": 0.0663729253
        },
        "feet": {
            "estimated_diameter_min": 156.725631285,
            "estimated_diameter_max": 350.4491653699
        }
    },
    "is_potentially_hazardous_asteroid": false,
    "close_approach_data": [
        {
            "close_approach_date": "2020-04-30",
            "close_approach_date_full": "2020-Apr-30 18:06",
            "epoch_date_close_approach": 1588269960000,
            "relative_velocity": {
                "kilometers_per_second": "5.3967575825",
                "kilometers_per_hour": "19428.3272968591",
                "miles_per_hour": "12072.0070362067"
            },
            "miss_distance": {
                "astronomical": "0.2587817862",
                "lunar": "100.6661148318",
                "kilometers": "38713204.010315394",
                "miles": "24055269.5143406772"
            },
            "orbiting_body": "Earth"
        }
    ],
    "orbital_data": {
        "orbit_id": "1",
        "orbit_determination_date": "2020-05-17 00:42:24",
        "first_observation_date": "2020-05-13",
        "last_observation_date": "2020-05-17",
        "data_arc_in_days": 4,
        "observations_used": 10,
        "orbit_uncertainty": "9",
        "minimum_orbit_intersection": ".242774",
        "jupiter_tisserand_invariant": "4.150",
        "epoch_osculation": "2458984.5",
        "eccentricity": ".2662534294327578",
        "semi_major_axis": "1.696253324618592",
        "inclination": "10.47703466014514",
        "ascending_node_longitude": "57.96906761863544",
        "orbital_period": "806.927459601768",
        "perihelion_distance": "1.244620059752175",
        "perihelion_argument": "158.7408861006467",
        "aphelion_distance": "2.14788658948501",
        "perihelion_time": "2458970.459500557911",
        "mean_anomaly": "6.263982888432821",
        "mean_motion": ".4461367570483547",
        "equinox": "J2000",
        "orbit_class": {
            "orbit_class_type": "AMO",
            "orbit_class_description": "Near-Earth asteroid orbits similar to that of 1221 Amor",
            "orbit_class_range": "1.017 AU < q (perihelion) < 1.3 AU"
        }
    },
    "is_sentry_object": false
}